LEMUR-2-GREENBERG       
1 42837U 17042N   26068.46200528  .00019778  00000+0  72539-3 0  9997
2 42837  97.3781 249.8007 0009157   4.0119 356.1192 15.27971352473146
STARLINK-34459          
1 64449U 25130M   26068.37527751  .00004773  00000+0  17344-3 0  9999
2 64449  53.1604  90.0838 0001454  92.9143 267.2024 15.30151864 40650
